NAVSTAR 77 (USA 289)    
1 43873U 18109A   24217.19477550 -.00000028  00000+0  00000+0 0  9997
2 43873  55.3133 119.1307 0029612 193.5325 338.7235  2.00558273 41397
